<?xml version="1.0" encoding="UTF-8"?>
<ndm xmlns:xsi="http://www.w3.org/2001/XMLSchema-instance" xsi:noNamespaceSchemaLocation="https://sanaregistry.org/r/ndmxml_unqualified/ndmxml-2.0.0-master-2.0.xsd">
<omm id="CCSDS_OMM_VERS" version="2.0">
<header><CREATION_DATE/><ORIGINATOR/></header><body><segment><metadata><OBJECT_NAME>IRIDIUM 159</OBJECT_NAME><OBJECT_ID>2018-061K</OBJECT_ID><CENTER_NAME>EARTH</CENTER_NAME><REF_FRAME>TEME</REF_FRAME><TIME_SYSTEM>UTC</TIME_SYSTEM><MEAN_ELEMENT_THEORY>SGP4</MEAN_ELEMENT_THEORY></metadata><data><meanElements><EPOCH>2023-12-16T07:24:06.280128</EPOCH><MEAN_MOTION>14.34221477</MEAN_MOTION><ECCENTRICITY>.0001968</ECCENTRICITY><INCLINATION>86.3966</INCLINATION><RA_OF_ASC_NODE>78.6497</RA_OF_ASC_NODE><ARG_OF_PERICENTER>98.0254</ARG_OF_PERICENTER><MEAN_ANOMALY>262.1165</MEAN_ANOMALY></meanElements><tleParameters><EPHEMERIS_TYPE>0</EPHEMERIS_TYPE><CLASSIFICATION_TYPE>U</CLASSIFICATION_TYPE><NORAD_CAT_ID>43578</NORAD_CAT_ID><ELEMENT_SET_NO>999</ELEMENT_SET_NO><REV_AT_EPOCH>28239</REV_AT_EPOCH><BSTAR>.12408E-3</BSTAR><MEAN_MOTION_DOT>.367E-5</MEAN_MOTION_DOT><MEAN_MOTION_DDOT>0</MEAN_MOTION_DDOT></tleParameters></data></segment></body></omm>
<omm id="CCSDS_OMM_VERS" version="2.0">
<header><CREATION_DATE/><ORIGINATOR/></header><body><segment><metadata><OBJECT_NAME>IRIDIUM 180</OBJECT_NAME><OBJECT_ID>2019-002A</OBJECT_ID><CENTER_NAME>EARTH</CENTER_NAME><REF_FRAME>TEME</REF_FRAME><TIME_SYSTEM>UTC</TIME_SYSTEM><MEAN_ELEMENT_THEORY>SGP4</MEAN_ELEMENT_THEORY></metadata><data><meanElements><EPOCH>2023-12-16T12:24:46.651968</EPOCH><MEAN_MOTION>14.34219495</MEAN_MOTION><ECCENTRICITY>.0001984</ECCENTRICITY><INCLINATION>86.3974</INCLINATION><RA_OF_ASC_NODE>15.4368</RA_OF_ASC_NODE><ARG_OF_PERICENTER>93.6377</ARG_OF_PERICENTER><MEAN_ANOMALY>266.5045</MEAN_ANOMALY></meanElements><tleParameters><EPHEMERIS_TYPE>0</EPHEMERIS_TYPE><CLASSIFICATION_TYPE>U</CLASSIFICATION_TYPE><NORAD_CAT_ID>43922</NORAD_CAT_ID><ELEMENT_SET_NO>999</ELEMENT_SET_NO><REV_AT_EPOCH>25803</REV_AT_EPOCH><BSTAR>.96444E-4</BSTAR><MEAN_MOTION_DOT>.29E-5</MEAN_MOTION_DOT><MEAN_MOTION_DDOT>0</MEAN_MOTION_DDOT></tleParameters></data></segment></body></omm>
<omm id="CCSDS_OMM_VERS" version="2.0">
<header><CREATION_DATE/><ORIGINATOR/></header><body><segment><metadata><OBJECT_NAME>IRIDIUM 176</OBJECT_NAME><OBJECT_ID>2019-002B</OBJECT_ID><CENTER_NAME>EARTH</CENTER_NAME><REF_FRAME>TEME</REF_FRAME><TIME_SYSTEM>UTC</TIME_SYSTEM><MEAN_ELEMENT_THEORY>SGP4</MEAN_ELEMENT_THEORY></metadata><data><meanElements><EPOCH>2023-12-16T14:31:15.964896</EPOCH><MEAN_MOTION>14.72249096</MEAN_MOTION><ECCENTRICITY>.0002367</ECCENTRICITY><INCLINATION>86.6102</INCLINATION><RA_OF_ASC_NODE>15.4312</RA_OF_ASC_NODE><ARG_OF_PERICENTER>91.8869</ARG_OF_PERICENTER><MEAN_ANOMALY>268.2620</MEAN_ANOMALY></meanElements><tleParameters><EPHEMERIS_TYPE>0</EPHEMERIS_TYPE><CLASSIFICATION_TYPE>U</CLASSIFICATION_TYPE><NORAD_CAT_ID>43923</NORAD_CAT_ID><ELEMENT_SET_NO>999</ELEMENT_SET_NO><REV_AT_EPOCH>26483</REV_AT_EPOCH><BSTAR>.16132E-3</BSTAR><MEAN_MOTION_DOT>.1042E-4</MEAN_MOTION_DOT><MEAN_MOTION_DDOT>0</MEAN_MOTION_DDOT></tleParameters></data></segment></body></omm>
<omm id="CCSDS_OMM_VERS" version="2.0">
<header><CREATION_DATE/><ORIGINATOR/></header><body><segment><metadata><OBJECT_NAME>IRIDIUM 168</OBJECT_NAME><OBJECT_ID>2019-002C</OBJECT_ID><CENTER_NAME>EARTH</CENTER_NAME><REF_FRAME>TEME</REF_FRAME><TIME_SYSTEM>UTC</TIME_SYSTEM><MEAN_ELEMENT_THEORY>SGP4</MEAN_ELEMENT_THEORY></metadata><data><meanElements><EPOCH>2023-12-16T12:15:38.812896</EPOCH><MEAN_MOTION>14.34220866</MEAN_MOTION><ECCENTRICITY>.0002067</ECCENTRICITY><INCLINATION>86.3976</INCLINATION><RA_OF_ASC_NODE>15.4909</RA_OF_ASC_NODE><ARG_OF_PERICENTER>94.2215</ARG_OF_PERICENTER><MEAN_ANOMALY>265.9217</MEAN_ANOMALY></meanElements><tleParameters><EPHEMERIS_TYPE>0</EPHEMERIS_TYPE><CLASSIFICATION_TYPE>U</CLASSIFICATION_TYPE><NORAD_CAT_ID>43924</NORAD_CAT_ID><ELEMENT_SET_NO>999</ELEMENT_SET_NO><REV_AT_EPOCH>25801</REV_AT_EPOCH><BSTAR>.98615E-4</BSTAR><MEAN_MOTION_DOT>.296E-5</MEAN_MOTION_DOT><MEAN_MOTION_DDOT>0</MEAN_MOTION_DDOT></tleParameters></data></segment></body></omm>
<omm id="CCSDS_OMM_VERS" version="2.0">
<header><CREATION_DATE/><ORIGINATOR/></header><body><segment><metadata><OBJECT_NAME>IRIDIUM 173</OBJECT_NAME><OBJECT_ID>2019-002D</OBJECT_ID><CENTER_NAME>EARTH</CENTER_NAME><REF_FRAME>TEME</REF_FRAME><TIME_SYSTEM>UTC</TIME_SYSTEM><MEAN_ELEMENT_THEORY>SGP4</MEAN_ELEMENT_THEORY></metadata><data><meanElements><EPOCH>2023-12-16T11:57:22.680288</EPOCH><MEAN_MOTION>14.34219589</MEAN_MOTION><ECCENTRICITY>.0002215</ECCENTRICITY><INCLINATION>86.3972</INCLINATION><RA_OF_ASC_NODE>15.4224</RA_OF_ASC_NODE><ARG_OF_PERICENTER>97.9645</ARG_OF_PERICENTER><MEAN_ANOMALY>262.1802</MEAN_ANOMALY></meanElements><tleParameters><EPHEMERIS_TYPE>0</EPHEMERIS_TYPE><CLASSIFICATION_TYPE>U</CLASSIFICATION_TYPE><NORAD_CAT_ID>43925</NORAD_CAT_ID><ELEMENT_SET_NO>999</ELEMENT_SET_NO><REV_AT_EPOCH>25799</REV_AT_EPOCH><BSTAR>.98058E-4</BSTAR><MEAN_MOTION_DOT>.294E-5</MEAN_MOTION_DOT><MEAN_MOTION_DDOT>0</MEAN_MOTION_DDOT></tleParameters></data></segment></body></omm>
<omm id="CCSDS_OMM_VERS" version="2.0">
<header><CREATION_DATE/><ORIGINATOR/></header><body><segment><metadata><OBJECT_NAME>IRIDIUM 169</OBJECT_NAME><OBJECT_ID>2019-002E</OBJECT_ID><CENTER_NAME>EARTH</CENTER_NAME><REF_FRAME>TEME</REF_FRAME><TIME_SYSTEM>UTC</TIME_SYSTEM><MEAN_ELEMENT_THEORY>SGP4</MEAN_ELEMENT_THEORY></metadata><data><meanElements><EPOCH>2023-12-16T16:57:44.808768</EPOCH><MEAN_MOTION>14.38599219</MEAN_MOTION><ECCENTRICITY>.0004913</ECCENTRICITY><INCLINATION>86.4231</INCLINATION><RA_OF_ASC_NODE>46.9417</RA_OF_ASC_NODE><ARG_OF_PERICENTER>105.5347</ARG_OF_PERICENTER><MEAN_ANOMALY>254.6394</MEAN_ANOMALY></meanElements><tleParameters><EPHEMERIS_TYPE>0</EPHEMERIS_TYPE><CLASSIFICATION_TYPE>U</CLASSIFICATION_TYPE><NORAD_CAT_ID>43926</NORAD_CAT_ID><ELEMENT_SET_NO>999</ELEMENT_SET_NO><REV_AT_EPOCH>25889</REV_AT_EPOCH><BSTAR>.12185E-3</BSTAR><MEAN_MOTION_DOT>.393E-5</MEAN_MOTION_DOT><MEAN_MOTION_DDOT>0</MEAN_MOTION_DDOT></tleParameters></data></segment></body></omm>
<omm id="CCSDS_OMM_VERS" version="2.0">
<header><CREATION_DATE/><ORIGINATOR/></header><body><segment><metadata><OBJECT_NAME>IRIDIUM 172</OBJECT_NAME><OBJECT_ID>2019-002F</OBJECT_ID><CENTER_NAME>EARTH</CENTER_NAME><REF_FRAME>TEME</REF_FRAME><TIME_SYSTEM>UTC</TIME_SYSTEM><MEAN_ELEMENT_THEORY>SGP4</MEAN_ELEMENT_THEORY></metadata><data><meanElements><EPOCH>2023-12-16T13:28:43.301856</EPOCH><MEAN_MOTION>14.34219226</MEAN_MOTION><ECCENTRICITY>.0002088</ECCENTRICITY><INCLINATION>86.3972</INCLINATION><RA_OF_ASC_NODE>15.4011</RA_OF_ASC_NODE><ARG_OF_PERICENTER>92.2329</ARG_OF_PERICENTER><MEAN_ANOMALY>267.9106</MEAN_ANOMALY></meanElements><tleParameters><EPHEMERIS_TYPE>0</EPHEMERIS_TYPE><CLASSIFICATION_TYPE>U</CLASSIFICATION_TYPE><NORAD_CAT_ID>43927</NORAD_CAT_ID><ELEMENT_SET_NO>999</ELEMENT_SET_NO><REV_AT_EPOCH>25801</REV_AT_EPOCH><BSTAR>.10334E-3</BSTAR><MEAN_MOTION_DOT>.309E-5</MEAN_MOTION_DOT><MEAN_MOTION_DDOT>0</MEAN_MOTION_DDOT></tleParameters></data></segment></body></omm>
<omm id="CCSDS_OMM_VERS" version="2.0">
<header><CREATION_DATE/><ORIGINATOR/></header><body><segment><metadata><OBJECT_NAME>IRIDIUM 175</OBJECT_NAME><OBJECT_ID>2019-002G</OBJECT_ID><CENTER_NAME>EARTH</CENTER_NAME><REF_FRAME>TEME</REF_FRAME><TIME_SYSTEM>UTC</TIME_SYSTEM><MEAN_ELEMENT_THEORY>SGP4</MEAN_ELEMENT_THEORY></metadata><data><meanElements><EPOCH>2023-12-16T12:44:50.219520</EPOCH><MEAN_MOTION>14.72239996</MEAN_MOTION><ECCENTRICITY>.0002433</ECCENTRICITY><INCLINATION>86.1509</INCLINATION><RA_OF_ASC_NODE>358.9930</RA_OF_ASC_NODE><ARG_OF_PERICENTER>90.5601</ARG_OF_PERICENTER><MEAN_ANOMALY>269.5895</MEAN_ANOMALY></meanElements><tleParameters><EPHEMERIS_TYPE>0</EPHEMERIS_TYPE><CLASSIFICATION_TYPE>U</CLASSIFICATION_TYPE><NORAD_CAT_ID>43928</NORAD_CAT_ID><ELEMENT_SET_NO>999</ELEMENT_SET_NO><REV_AT_EPOCH>26481</REV_AT_EPOCH><BSTAR>.17603E-3</BSTAR><MEAN_MOTION_DOT>.1135E-4</MEAN_MOTION_DOT><MEAN_MOTION_DDOT>0</MEAN_MOTION_DDOT></tleParameters></data></segment></body></omm>

</ndm>
